NORAD_CAT_ID,OBJECT_NAME,OBJECT_TYPE,EPOCH,MEAN_MOTION,ECCENTRICITY,INCLINATION,RA_OF_ASC_NODE,ARG_OF_PERICENTER,MEAN_ANOMALY,BSTAR,MEAN_MOTION_DOT,MEAN_MOTION_DDOT,TLE_LINE0,TLE_LINE1,TLE_LINE2,SEMIMAJOR_AXIS,PERIOD,APOGEE,PERIGEE,DECAYED
53912.0,STARLINK-5059,PAYLOAD,2022-10-24 14:00:01,15.73127662,0.0001506999999999,53.2151,106.4103,43.5938,236.8191,0.00023573,0.00032489,0.0,0 STARLINK-5059,1 53912U 22119AC  22297.58334491  .00032489  00000-0  23573-3 0  9993,2 53912  53.2151 106.4103 0001507  43.5938 236.8191 15.73127662  1303,6728.101,91.537,350.98,348.952,0.0
53912.0,STARLINK-5059,PAYLOAD,2022-10-24 20:00:01,15.73128775,0.0001735,53.2149,105.1748,38.7122,218.342,0.00055463,0.00077705,0.0,0 STARLINK-5059,1 53912U 22119AC  22297.83334491  .00077705  00000-0  55463-3 0  9994,2 53912  53.2149 105.1748 0001735  38.7122 218.3420 15.73128775  5136,6728.098000000001,91.537,351.131,348.796,0.0
53912.0,STARLINK-5059,PAYLOAD,2022-10-24 22:00:00,15.73123093,0.0001730999999999,53.2146,104.7625,37.5175,331.7487,0.00073019,0.00102781,0.0,0 STARLINK-5059,1 53912U 22119AC  22297.91667824  .00102781  00000-0  73019-3 0  9992,2 53912  53.2146 104.7625 0001731  37.5175 331.7487 15.73123093  1309,6728.114000000001,91.538,351.144,348.815,0.0
53912.0,STARLINK-5059,PAYLOAD,2022-10-25 12:00:00,15.732423,0.0001597,53.2149,101.8737,46.0438,28.7791,-0.0002618,-0.00037268,0.0,0 STARLINK-5059,1 53912U 22119AC  22298.50001157 -.00037268  00000-0 -26180-3 0  9995,2 53912  53.2149 101.8737 0001597  46.0438  28.7791 15.73242300  5242,6727.775,91.531,350.714,348.565,0.0
53912.0,STARLINK-5059,PAYLOAD,2022-10-25 14:00:01,15.73257741,0.0001655,53.2149,101.4619,44.4116,142.6491,-0.00059738,-0.00083838,0.0,0 STARLINK-5059,1 53912U 22119AC  22298.58334491 -.00083838  00000-0 -59738-3 0  9992,2 53912  53.2149 101.4619 0001655  44.4116 142.6491 15.73257741  1308,6727.731,91.53,350.709,348.482,0.0
53912.0,STARLINK-5059,PAYLOAD,2022-10-25 22:00:01,15.73184552,0.0001865,53.215,99.8137,37.5072,238.5829,0.00052394,0.00073511,0.0,0 STARLINK-5059,1 53912U 22119AC  22298.91668981  .00073511  00000-0  52394-3 0  9999,2 53912  53.2150  99.8137 0001865  37.5072 238.5829 15.73184552  1301,6727.939,91.534,351.059,348.5490000000001,0.0
53912.0,STARLINK-5059,PAYLOAD,2022-10-26 04:00:00,15.73245345,0.0001717,53.2154,98.5749,38.4679,214.2563,-0.00053041,-0.00074551,0.0,0 STARLINK-5059,1 53912U 22119AC  22299.16667824 -.00074551  00000-0 -53041-3 0  9999,2 53912  53.2154  98.5749 0001717  38.4679 214.2563 15.73245345  5341,6727.766,91.531,350.786,348.476,0.0
53912.0,STARLINK-5059,PAYLOAD,2022-10-26 14:00:01,15.732301500000002,0.0001705,53.2155,96.5132,35.4038,58.4887,1.9294e-05,2.091e-05,0.0,0 STARLINK-5059,1 53912U 22119AC  22299.58334491  .00002091  00000-0  19294-4 0  9997,2 53912  53.2155  96.5132 0001705  35.4038  58.4887 15.73230150  5412,6727.809,91.531,350.821,348.527,0.0
53912.0,STARLINK-5059,PAYLOAD,2022-10-26 22:00:00,15.73208897,0.0001841,53.215,94.865,27.3478,155.5186,0.00010175,0.00013688,0.0,0 STARLINK-5059,1 53912U 22119AC  22299.91667824  .00013688  00000-0  10175-3 0  9995,2 53912  53.2150  94.8650 0001841  27.3478 155.5186 15.73208897  1300,6727.87,91.533,350.973,348.496,0.0
53912.0,STARLINK-5059,PAYLOAD,2022-10-27 14:00:01,15.73233302,0.000178,53.2156,91.5646,31.7415,329.0854,-4.8211e-05,-7.391e-05,0.0,0 STARLINK-5059,1 53912U 22119AC  22300.58335648 -.00007391  00000-0 -48211-4 0  9996,2 53912  53.2156  91.5646 0001780  31.7415 329.0854 15.73233302  5568,6727.8,91.531,350.86300000000006,348.468,0.0
53912.0,STARLINK-5059,PAYLOAD,2022-10-27 22:00:00,15.73203879,0.0001952,53.2156,89.9163,24.9693,64.7684,0.00041296,0.00057747,0.0,0 STARLINK-5059,1 53912U 22119AC  22300.91667824  .00057747  00000-0  41296-3 0  9990,2 53912  53.2156  89.9163 0001952  24.9693  64.7684 15.73203879  1304,6727.884,91.533,351.06199999999984,348.436,0.0
53912.0,STARLINK-5059,PAYLOAD,2022-10-28 14:00:01,15.73240671,0.0002112999999999,53.2161,86.6162,36.6409,231.099,-0.00059282,-0.00083155,0.0,0 STARLINK-5059,1 53912U 22119AC  22301.58335648 -.00083155  00000-0 -59282-3 0  9998,2 53912  53.2161  86.6162 0002113  36.6409 231.0990 15.73240671  1308,6727.779,91.531,351.066,348.223,0.0
53912.0,STARLINK-5059,PAYLOAD,2022-10-28 22:00:01,15.73193267,0.0002215999999999,53.2155,84.9677,28.3055,328.3672,0.00017037,0.0002334999999999,0.0,0 STARLINK-5059,1 53912U 22119AC  22301.91668981  .00023350  00000-0  17037-3 0  9995,2 53912  53.2155  84.9677 0002216  28.3055 328.3672 15.73193267  5772,6727.9140000000025,91.534,351.27,348.288,0.0
53912.0,STARLINK-5059,PAYLOAD,2022-10-29 12:00:00,15.73229421,0.0002026999999999,53.216,82.0799,31.5466,30.7029,-6.9776e-05,-0.00010415,0.0,0 STARLINK-5059,1 53912U 22119AC  22302.50001157 -.00010415  00000-0 -69776-4 0  9995,2 53912  53.2160  82.0799 0002027  31.5466  30.7029 15.73229421  1301,6727.811,91.531,351.04,348.31300000000016,0.0
53912.0,STARLINK-5059,PAYLOAD,2022-10-29 22:00:01,15.7319798,0.0002218,53.2159,80.0193,23.1148,240.3931,0.0003493,0.00048685,0.0,0 STARLINK-5059,1 53912U 22119AC  22302.91668981  .00048685  00000-0  34930-3 0  9995,2 53912  53.2159  80.0193 0002218  23.1148 240.3931 15.73197980  1306,6727.901,91.533,351.2580000000001,348.274,0.0
53912.0,STARLINK-5059,PAYLOAD,2022-10-30 00:00:00,15.732347400000002,0.0002188,53.2161,79.6065,22.335,353.3334,-0.00017549,-0.00025216,0.0,0 STARLINK-5059,1 53912U 22119AC  22303.00001157 -.00025216  00000-0 -17549-3 0  9996,2 53912  53.2161  79.6065 0002188  22.3350 353.3334 15.73234740  5945,6727.795999999999,91.531,351.1330000000001,348.189,0.0
53912.0,STARLINK-5059,PAYLOAD,2022-10-30 14:00:01,15.73187854,0.0002243,53.2163,76.7198,25.1304,56.1566,-3.2702e-05,-5.206e-05,0.0,0 STARLINK-5059,1 53912U 22119AC  22303.58334491 -.00005206  00000-0 -32702-4 0  9995,2 53912  53.2163  76.7198 0002243  25.1304  56.1566 15.73187854  1308,6727.93,91.534,351.30400000000014,348.286,0.0
53912.0,STARLINK-5059,PAYLOAD,2022-10-30 22:00:01,15.731921300000002,0.0002362,53.2157,75.0708,19.3268,150.9391,4.574600000000001e-05,5.801e-05,0.0,0 STARLINK-5059,1 53912U 22119AC  22303.91668981  .00005801  00000-0  45746-4 0  9997,2 53912  53.2157  75.0708 0002362  19.3268 150.9391 15.73192130  1308,6727.918000000002,91.534,351.372,348.1930000000001,0.0
53912.0,STARLINK-5059,PAYLOAD,2022-10-31 14:00:01,15.73228506,0.0002376999999999,53.2159,71.7715,22.1757,325.8567,-0.00054169,-0.00076064,0.0,0 STARLINK-5059,1 53912U 22119AC  22304.58334491 -.00076064  00000-0 -54169-3 0  9996,2 53912  53.2159  71.7715 0002377  22.1757 325.8567 15.73228506  1307,6727.814,91.532,351.278,348.08,0.0
53912.0,STARLINK-5059,PAYLOAD,2022-10-31 20:00:01,15.73165368,0.0002556,53.216,70.5352,19.7385,305.0693,0.00015201,0.00020736,0.0,0 STARLINK-5059,1 53912U 22119AC  22304.83335648  .00020736  00000-0  15201-3 0  9996,2 53912  53.2160  70.5352 0002556  19.7385 305.0693 15.73165368  6234,6727.994000000002,91.535,351.579,348.139,0.0
53912.0,STARLINK-5059,PAYLOAD,2022-10-31 22:00:01,15.73172937,0.0002544,53.2159,70.1222,19.8019,57.2276,7.8596e-05,0.00010411,0.0,0 STARLINK-5059,1 53912U 22119AC  22304.91668981  .00010411  00000-0  78596-4 0  9990,2 53912  53.2159  70.1222 0002544  19.8019  57.2276 15.73172937  1302,6727.972,91.535,351.5490000000001,348.126,0.0
53912.0,STARLINK-5059,PAYLOAD,2022-11-01 14:00:01,15.73187106,0.0002593999999999,53.2162,66.82300000000001,19.3029,235.4938,0.00023284,0.00032167,0.0,0 STARLINK-5059,1 53912U 22119AC  22305.58334491  .00032167  00000-0  23284-3 0  9995,2 53912  53.2162  66.8230 0002594  19.3029 235.4938 15.73187106  1307,6727.932,91.534,351.542,348.052,0.0
53912.0,STARLINK-5059,PAYLOAD,2022-11-01 22:00:00,15.73244163,0.0002676,53.2157,65.1735,15.2659,328.4537,-0.00066038,-0.00092484,0.0,0 STARLINK-5059,1 53912U 22119AC  22305.91667824 -.00092484  00000-0 -66038-3 0  9995,2 53912  53.2157  65.1735 0002676  15.2659 328.4537 15.73244163  1303,6727.769,91.531,351.435,347.834,0.0
53912.0,STARLINK-5059,PAYLOAD,2022-11-02 04:00:00,15.73178281,0.000247,53.2158,63.9348,16.0134,304.4291,-0.00031706,-0.00044848,0.0,0 STARLINK-5059,1 53912U 22119AC  22306.16667824 -.00044848  00000-0 -31706-3 0  9998,2 53912  53.2158  63.9348 0002470  16.0134 304.4291 15.73178281  6447,6727.956999999999,91.534,351.4840000000001,348.16,0.0
53912.0,STARLINK-5059,PAYLOAD,2022-11-02 14:00:01,15.73140747,0.0002716,53.2163,61.8715,14.2283,147.316,0.00043548,0.00060791,0.0,0 STARLINK-5059,1 53912U 22119AC  22306.58334491  .00060791  00000-0  43548-3 0  9995,2 53912  53.2163  61.8715 0002716  14.2283 147.3160 15.73140747  1301,6728.064,91.537,351.756,348.102,0.0
53912.0,STARLINK-5059,PAYLOAD,2022-11-02 18:00:02,15.73139007,0.0002831,53.2163,61.0438,14.487,11.5649,0.00089819,0.00127039,0.0,0 STARLINK-5059,1 53912U 22119AC  22306.75002315  .00127039  00000-0  89819-3 0  9991,2 53912  53.2163  61.0438 0002831  14.4870  11.5649 15.73139007  6538,6728.069,91.537,351.839,348.029,0.0
53912.0,STARLINK-5059,PAYLOAD,2022-11-02 22:00:00,15.73200167,0.0002829,53.216,60.2249,13.9024,236.493,0.00040171,0.00056142,0.0,0 STARLINK-5059,1 53912U 22119AC  22306.91667824  .00056142  00000-0  40171-3 0  9995,2 53912  53.2160  60.2249 0002829  13.9024 236.4930 15.73200167  1305,6727.895,91.533,351.663,347.856,0.0
53912.0,STARLINK-5059,PAYLOAD,2022-11-03 04:00:00,15.732099800000002,0.000263,53.2171,58.9698,17.9537,209.1961,-8.220700000000001e-05,-0.0001215,0.0,0 STARLINK-5059,1 53912U 22119AC  22307.16667824 -.00012150  00000-0 -82207-4 0  9993,2 53912  53.2171  58.9698 0002630  17.9537 209.1961 15.73209980  6603,6727.8669999999975,91.533,351.501,347.962,0.0
53912.0,STARLINK-5059,PAYLOAD,2022-11-03 14:00:01,15.73289484,0.0003033,53.2165,56.9257,18.3947,49.9561,-0.00038298,-0.00054247,0.0,0 STARLINK-5059,1 53912U 22119AC  22307.58334491 -.00054247  00000-0 -38298-3 0  9993,2 53912  53.2165  56.9257 0003033  18.3947  49.9561 15.73289484  6673,6727.64,91.528,351.546,347.465,0.0
